{
  "norad_id": 47870,
  "name": "STARLINK-2326",
  "history": [
    {
      "epoch": "2026-03-28T13:26:11.369184Z",
      "apogee_km": 475.99932603233265,
      "perigee_km": 474.42319299960946,
      "latitude_deg": -3.497064103932262e-05,
      "longitude_deg": 165.80444945800429,
      "height_km": 475.94156395229277,
      "semi_major_axis_km": 6853.348259515971,
      "eccentricity": 0.00011499,
      "inclination_deg": 53.1618,
      "raan_deg": 193.3304,
      "arg_perigee_deg": 77.6784,
      "mean_anomaly_deg": 282.4345,
      "mean_motion_rev_day": 15.30201276
    },
    {
      "epoch": "2026-03-29T00:24:34.133472Z",
      "apogee_km": 476.04617039421737,
      "perigee_km": 474.40684584307473,
      "latitude_deg": -2.7554857598107266e-05,
      "longitude_deg": -1.3645410703869558,
      "height_km": 475.9435597038999,
      "semi_major_axis_km": 6853.363508118646,
      "eccentricity": 0.0001196,
      "inclination_deg": 53.161,
      "raan_deg": 191.2069,
      "arg_perigee_deg": 77.2227,
      "mean_anomaly_deg": 282.8907,
      "mean_motion_rev_day": 15.30196169
    }
  ]
}